NORAD_CAT_ID,OBJECT_NAME,OBJECT_TYPE,EPOCH,MEAN_MOTION,ECCENTRICITY,INCLINATION,RA_OF_ASC_NODE,ARG_OF_PERICENTER,MEAN_ANOMALY,BSTAR,MEAN_MOTION_DOT,MEAN_MOTION_DDOT,TLE_LINE0,TLE_LINE1,TLE_LINE2,SEMIMAJOR_AXIS,PERIOD,APOGEE,PERIGEE,DECAYED
49443.0,STARLINK-3136,PAYLOAD,2022-02-18 22:00:00,15.38894055,0.0001954,53.2176,14.2342,36.3482,174.0249,-0.018179,-0.00660514,0.0,0 STARLINK-3136,1 49443U 21104AM  22049.91667824 -.00660514  00000-0 -18179-1 0  9993,2 49443  53.2176  14.2342 0001954  36.3482 174.0249 15.38894055 16564,6827.515,93.574,450.715,448.046,0.0
49443.0,STARLINK-3136,PAYLOAD,2022-02-19 14:00:01,15.37906609,0.0001744,53.2174,11.1046,34.5268,270.1611,-0.016725,-0.00586352,0.0,0 STARLINK-3136,1 49443U 21104AM  22050.58334491 -.00586352  00000-0 -16725-1 0  9991,2 49443  53.2174  11.1046 0001744  34.5268 270.1611 15.37906609  3642,6830.438,93.634,453.494,451.111,0.0
49443.0,STARLINK-3136,PAYLOAD,2022-02-19 22:00:00,15.37412814,0.0001705,53.2173,9.5412,40.8678,310.1306,-0.015623,-0.00542109,0.0,0 STARLINK-3136,1 49443U 21104AM  22050.91667824 -.00542109  00000-0 -15623-1 0  9995,2 49443  53.2173   9.5412 0001705  40.8678 310.1306 15.37412814 16719,6831.9,93.664,454.93,452.6,0.0
49443.0,STARLINK-3136,PAYLOAD,2022-02-20 06:00:00,15.36932314,0.0001778,53.2175,7.9821,35.9073,0.8401,-0.015466,-0.00529241,0.0,0 STARLINK-3136,1 49443U 21104AM  22051.25001157 -.00529241  00000-0 -15466-1 0  9991,2 49443  53.2175   7.9821 0001778  35.9073   0.8401 15.36932314 16766,6833.324000000001,93.693,456.404,453.974,0.0
49443.0,STARLINK-3136,PAYLOAD,2022-02-20 14:00:01,15.36486232,0.000176,53.2173,6.4205,29.7196,52.1952,-0.016487,-0.00554237,0.0,0 STARLINK-3136,1 49443U 21104AM  22051.58334491 -.00554237  00000-0 -16487-1 0  9994,2 49443  53.2173   6.4205 0001760  29.7196  52.1952 15.36486232 16823,6834.647,93.72,457.714,455.309,0.0
49443.0,STARLINK-3136,PAYLOAD,2022-02-20 22:00:00,15.36041068,0.0001915,53.2172,4.8605,36.7054,89.8143,-0.017525,-0.00578836,0.0,0 STARLINK-3136,1 49443U 21104AM  22051.91667824 -.00578836  00000-0 -17525-1 0  9995,2 49443  53.2172   4.8605 0001915  36.7054  89.8143 15.36041068 16879,6835.967,93.747,459.141,456.523,0.0
49443.0,STARLINK-3136,PAYLOAD,2022-02-21 14:00:01,15.35061938,0.000185,53.2174,1.746,32.1947,181.9131,-0.016509,-0.0053166,0.0,0 STARLINK-3136,1 49443U 21104AM  22052.58334491 -.00531660  00000-0 -16509-1 0  9995,2 49443  53.2174   1.7460 0001850  32.1947 181.9131 15.35061938 16974,6838.874,93.807,462.004,459.473,0.0
49443.0,STARLINK-3136,PAYLOAD,2022-02-21 22:00:00,15.34607323,0.0001726,53.2171,0.1892,48.1951,208.8355,-0.0168789999999999,-0.00535432,0.0,0 STARLINK-3136,1 49443U 21104AM  22052.91667824 -.00535432  00000-0 -16879-1 0  9992,2 49443  53.2171   0.1892 0001726  48.1951 208.8355 15.34607323 17024,6840.224,93.835,463.27,460.908,0.0
49443.0,STARLINK-3136,PAYLOAD,2022-02-22 06:00:00,15.34226985,0.0001748,53.2175,358.6384,40.5304,258.8288,-0.02109,-0.00658779,0.0,0 STARLINK-3136,1 49443U 21104AM  22053.25001157 -.00658779  00000-0 -21090-1 0  9992,2 49443  53.2175 358.6384 0001748  40.5304 258.8288 15.34226985 17073,6841.355,93.858,464.415,462.024,0.0
49443.0,STARLINK-3136,PAYLOAD,2022-02-22 14:00:01,15.33762552,0.000154,53.2175,357.083,42.0063,299.1683,-0.021547,-0.0066283,0.0,0 STARLINK-3136,1 49443U 21104AM  22053.58334491 -.00662830  00000-0 -21547-1 0  9998,2 49443  53.2175 357.0830 0001540  42.0063 299.1683 15.33762552  3651,6842.736,93.887,465.654,463.547,0.0
49443.0,STARLINK-3136,PAYLOAD,2022-02-22 22:00:00,15.33295858,0.0001614,53.2176,355.5305,39.5016,342.9273,-0.02184,-0.0066202,0.0,0 STARLINK-3136,1 49443U 21104AM  22053.91667824 -.00662020  00000-0 -21840-1 0  9991,2 49443  53.2176 355.5305 0001614  39.5016 342.9273 15.33295858  3655,6844.124,93.915,467.094,464.884,0.0
49443.0,STARLINK-3136,PAYLOAD,2022-02-23 06:00:00,15.32826086,0.0001769,53.2175,353.9807,34.8404,28.2828,-0.022,-0.0065738,0.0,0 STARLINK-3136,1 49443U 21104AM  22054.25001157 -.00657380  00000-0 -22000-1 0  9992,2 49443  53.2175 353.9807 0001769  34.8404  28.2828 15.32826086 17223,6845.522,93.944,468.598,466.176,0.0
49443.0,STARLINK-3136,PAYLOAD,2022-02-23 14:00:01,15.32360631,0.0001619,53.2175,352.4286,40.6555,62.6015,-0.022378,-0.00658787,0.0,0 STARLINK-3136,1 49443U 21104AM  22054.58334491 -.00658787  00000-0 -22378-1 0  9998,2 49443  53.2175 352.4286 0001619  40.6555  62.6015 15.32360631  3677,6846.908,93.973,469.882,467.665,0.0
49443.0,STARLINK-3136,PAYLOAD,2022-02-23 22:00:00,15.31894706,0.0001941,53.2175,350.8794,35.4233,107.406,-0.022747,-0.00659854,0.0,0 STARLINK-3136,1 49443U 21104AM  22054.91667824 -.00659854  00000-0 -22747-1 0  9990,2 49443  53.2175 350.8794 0001941  35.4233 107.4060 15.31894706  3678,6848.297,94.001,471.491,468.832,0.0
49443.0,STARLINK-3136,PAYLOAD,2022-02-24 06:00:00,15.31423941,0.0001909,53.2174,349.3328,38.2231,143.6187,-0.022817,-0.00652695,0.0,0 STARLINK-3136,1 49443U 21104AM  22055.25001157 -.00652695  00000-0 -22817-1 0  9993,2 49443  53.2174 349.3328 0001909  38.2231 143.6187 15.31423941 17380,6849.7,94.03,472.87300000000016,470.257,0.0
49443.0,STARLINK-3136,PAYLOAD,2022-02-24 14:00:01,15.30960877,0.0001859,53.2175,347.7838,38.5019,181.7909,-0.023358,-0.00658135,0.0,0 STARLINK-3136,1 49443U 21104AM  22055.58334491 -.00658135  00000-0 -23358-1 0  9995,2 49443  53.2175 347.7838 0001859  38.5019 181.7909 15.30960877  3653,6851.081,94.059,474.22,471.673,0.0
49443.0,STARLINK-3136,PAYLOAD,2022-02-24 22:00:00,15.30419602,0.0001838,53.2173,346.2361,44.4943,213.729,-0.019855,-0.00550701,0.0,0 STARLINK-3136,1 49443U 21104AM  22055.91667824 -.00550701  00000-0 -19855-1 0  9998,2 49443  53.2173 346.2361 0001838  44.4943 213.7290 15.30419602  3637,6852.696,94.092,475.821,473.302,0.0
49443.0,STARLINK-3136,PAYLOAD,2022-02-25 06:00:00,15.30026005,0.000176,53.2174,344.6947,39.2484,256.2646,-0.023927,-0.00655016,0.0,0 STARLINK-3136,1 49443U 21104AM  22056.25001157 -.00655016  00000-0 -23927-1 0  9997,2 49443  53.2174 344.6947 0001760  39.2484 256.2646 15.30026005 17538,6853.871999999999,94.116,476.943,474.53,0.0
49443.0,STARLINK-3136,PAYLOAD,2022-02-25 14:00:01,15.29552774,0.0001865,53.2176,343.1483,33.2441,299.043,-0.023924,-0.00646056,0.0,0 STARLINK-3136,1 49443U 21104AM  22056.58334491 -.00646056  00000-0 -23924-1 0  9994,2 49443  53.2176 343.1483 0001865  33.2441 299.0430 15.29552774  3639,6855.285,94.145,478.429,475.872,0.0
49443.0,STARLINK-3136,PAYLOAD,2022-02-25 22:00:00,15.29096456,0.0001853,53.2177,341.607,32.7711,335.7197,-0.024891,-0.00661564,0.0,0 STARLINK-3136,1 49443U 21104AM  22056.91667824 -.00661564  00000-0 -24891-1 0  9995,2 49443  53.2177 341.6070 0001853  32.7711 335.7197 15.29096456  3656,6856.649,94.173,479.785,477.24300000000005,0.0
49443.0,STARLINK-3136,PAYLOAD,2022-02-26 06:00:00,15.28626868,0.0001695,53.2174,340.0667,36.7348,7.4044,-0.025034,-0.00656174,0.0,0 STARLINK-3136,1 49443U 21104AM  22057.25001157 -.00656174  00000-0 -25034-1 0  9995,2 49443  53.2174 340.0667 0001695  36.7348   7.4044 15.28626868 17689,6858.053000000001,94.202,481.081,478.756,0.0
49443.0,STARLINK-3136,PAYLOAD,2022-02-26 14:00:01,15.28160704,0.0001797,53.2175,338.5243,33.3671,45.8608,-0.025443,-0.00657319,0.0,0 STARLINK-3136,1 49443U 21104AM  22057.58334491 -.00657319  00000-0 -25443-1 0  9997,2 49443  53.2175 338.5243 0001797  33.3671  45.8608 15.28160704  3653,6859.448,94.231,482.545,480.08,0.0
49443.0,STARLINK-3136,PAYLOAD,2022-02-26 22:00:00,15.27695892,0.0002181,53.2175,336.9857,28.2615,85.4923,-0.025936,-0.00660382,0.0,0 STARLINK-3136,1 49443U 21104AM  22057.91667824 -.00660382  00000-0 -25936-1 0  9994,2 49443  53.2175 336.9857 0002181  28.2615  85.4923 15.27695892  3688,6860.839,94.26,484.2,481.208,0.0
49443.0,STARLINK-3136,PAYLOAD,2022-02-27 06:00:00,15.27226003,0.0001751999999999,53.2173,335.4484,42.1686,105.5517,-0.02605,-0.00654221,0.0,0 STARLINK-3136,1 49443U 21104AM  22058.25001157 -.00654221  00000-0 -26050-1 0  9996,2 49443  53.2173 335.4484 0001752  42.1686 105.5517 15.27226003 17842,6862.246,94.289,485.314,482.909,0.0
49443.0,STARLINK-3136,PAYLOAD,2022-02-27 14:00:01,15.26760722,0.0001827,53.2174,333.9093,39.8119,141.3147,-0.026514,-0.00656334,0.0,0 STARLINK-3136,1 49443U 21104AM  22058.58334491 -.00656334  00000-0 -26514-1 0  9994,2 49443  53.2174 333.9093 0001827  39.8119 141.3147 15.26760722  3661,6863.64,94.317,486.759,484.251,0.0
49443.0,STARLINK-3136,PAYLOAD,2022-02-27 22:00:00,15.26294621,0.0001969,53.2176,332.3742,38.0669,175.90400000000002,-0.026937,-0.00657354,0.0,0 STARLINK-3136,1 49443U 21104AM  22058.91667824 -.00657354  00000-0 -26937-1 0  9992,2 49443  53.2176 332.3742 0001969  38.0669 175.9040 15.26294621  3660,6865.038000000001,94.346,488.254,485.551,0.0
49443.0,STARLINK-3136,PAYLOAD,2022-02-28 06:00:00,15.25827798,0.0001636999999999,53.2173,330.84,49.1285,197.1261,-0.027278,-0.00656345,0.0,0 STARLINK-3136,1 49443U 21104AM  22059.25001157 -.00656345  00000-0 -27278-1 0  9999,2 49443  53.2173 330.8400 0001637  49.1285 197.1261 15.25827798 17998,6866.438,94.375,489.427,487.179,0.0
49443.0,STARLINK-3136,PAYLOAD,2022-02-28 14:00:01,15.25360382,0.0001720999999999,53.2175,329.3042,41.3954,236.5844,-0.027613,-0.00655172,0.0,0 STARLINK-3136,1 49443U 21104AM  22059.58334491 -.00655172  00000-0 -27613-1 0  9995,2 49443  53.2175 329.3042 0001721  41.3954 236.5844 15.25360382  3650,6867.84,94.404,490.887,488.524,0.0
49443.0,STARLINK-3136,PAYLOAD,2022-02-28 22:00:00,15.248956699999995,0.0002016,53.2176,327.7725,32.2473,276.8943,-0.028146,-0.00658316,0.0,0 STARLINK-3136,1 49443U 21104AM  22059.91667824 -.00658316  00000-0 -28146-1 0  9996,2 49443  53.2176 327.7725 0002016  32.2473 276.8943 15.24895670  3642,6869.236,94.433,492.486,489.716,0.0
